{
  "type": "FeatureCollection",
  "features": [
    {
      "type": "Feature",
      "properties": {
        "norad_id": 33886,
        "name": "IRIDIUM 33 DEB",
        "group": "iridium-33-debris",
        "lat": 42.40303388007029,
        "lon": 68.04975911038225,
        "alt_km": 777.2688378261191,
        "timestamp": "2025-12-18T15:47:11.609753+00:00",
        "meta_object_name": "IRIDIUM 33 DEB",
        "meta_object_id": "1997-051BF",
        "meta_epoch": "2025-12-18T05:51:24.712128",
        "meta_mean_motion": 14.36058537,
        "meta_eccentricity": 0.00127478,
        "meta_inclination": 86.3827,
        "meta_ra_of_asc_node": 64.9121,
        "meta_arg_of_pericenter": 221.7608,
        "meta_mean_anomaly": 203.2449,
        "meta_ephemeris_type": 0,
        "meta_classification_type": "U",
        "meta_norad_cat_id": 33886,
        "meta_element_set_no": 999,
        "meta_rev_at_epoch": 88131,
        "meta_bstar": 0.00016091906,
        "meta_mean_motion_dot": 4.88e-06,
        "meta_mean_motion_ddot": 0,
        "tle_line1": "1 33886U 97051BF  25352.24403602  .00000488  00000+0  16092-3 0  9998",
        "tle_line2": "2 33886  86.3827  64.9121 0012747 221.7608 203.2449 14.36058537881311"
      },
      "geometry": {
        "type": "Point",
        "coordinates": [
          68.04975911038225,
          42.40303388007029
        ]
      }
    },
    {
      "type": "Feature",
      "properties": {
        "norad_id": 33887,
        "name": "IRIDIUM 33 DEB",
        "group": "iridium-33-debris",
        "lat": 3.6055360854922647,
        "lon": 1.0752788219155063,
        "alt_km": 773.6014037110072,
        "timestamp": "2025-12-18T15:47:11.609764+00:00",
        "meta_object_name": "IRIDIUM 33 DEB",
        "meta_object_id": "1997-051BG",
        "meta_epoch": "2025-12-18T00:58:46.314048",
        "meta_mean_motion": 14.37225774,
        "meta_eccentricity": 0.00049614,
        "meta_inclination": 86.3041,
        "meta_ra_of_asc_node": 1.1077,
        "meta_arg_of_pericenter": 204.7523,
        "meta_mean_anomaly": 208.8254,
        "meta_ephemeris_type": 0,
        "meta_classification_type": "U",
        "meta_norad_cat_id": 33887,
        "meta_element_set_no": 999,
        "meta_rev_at_epoch": 88241,
        "meta_bstar": 0.00012406727,
        "meta_mean_motion_dot": 3.89e-06,
        "meta_mean_motion_ddot": 0,
        "tle_line1": "1 33887U 97051BG  25352.04081382  .00000389  00000+0  12407-3 0  9990",
        "tle_line2": "2 33887  86.3041   1.1077 0004961 204.7523 208.8254 14.37225774882416"
      },
      "geometry": {
        "type": "Point",
        "coordinates": [
          1.0752788219155063,
          3.6055360854922647
        ]
      }
    },
    {
      "type": "Feature",
      "properties": {
        "norad_id": 33953,
        "name": "IRIDIUM 33 DEB",
        "group": "iridium-33-debris",
        "lat": -64.83060497595461,
        "lon": -121.05640653373108,
        "alt_km": 727.5144774411974,
        "timestamp": "2025-12-18T15:47:11.609775+00:00",
        "meta_object_name": "IRIDIUM 33 DEB",
        "meta_object_id": "1997-051BN",
        "meta_epoch": "2025-12-18T05:01:59.483136",
        "meta_mean_motion": 14.55376631,
        "meta_eccentricity": 0.00180872,
        "meta_inclination": 86.3847,
        "meta_ra_of_asc_node": 51.4057,
        "meta_arg_of_pericenter": 86.1806,
        "meta_mean_anomaly": 332.7488,
        "meta_ephemeris_type": 0,
        "meta_classification_type": "U",
        "meta_norad_cat_id": 33953,
        "meta_element_set_no": 999,
        "meta_rev_at_epoch": 88383,
        "meta_bstar": 0.00090494246,
        "meta_mean_motion_dot": 3.956e-05,
        "meta_mean_motion_ddot": 0,
        "tle_line1": "1 33953U 97051BN  25352.20971624  .00003956  00000+0  90494-3 0  9994",
        "tle_line2": "2 33953  86.3847  51.4057 0018087  86.1806 332.7488 14.55376631883832"
      },
      "geometry": {
        "type": "Point",
        "coordinates": [
          -121.05640653373108,
          -64.83060497595461
        ]
      }
    },
    {
      "type": "Feature",
      "properties": {
        "norad_id": 33960,
        "name": "IRIDIUM 33 DEB",
        "group": "iridium-33-debris",
        "lat": -32.78206094031299,
        "lon": -75.69539281309555,
        "alt_km": 617.8077175369008,
        "timestamp": "2025-12-18T15:47:11.609786+00:00",
        "meta_object_name": "IRIDIUM 33 DEB",
        "meta_object_id": "1997-051BV",
        "meta_epoch": "2025-12-18T06:57:12.542400",
        "meta_mean_motion": 14.854684,
        "meta_eccentricity": 0.00074505,
        "meta_inclination": 86.2539,
        "meta_ra_of_asc_node": 286.8965,
        "meta_arg_of_pericenter": 53.039,
        "meta_mean_anomaly": 107.3954,
        "meta_ephemeris_type": 0,
        "meta_classification_type": "U",
        "meta_norad_cat_id": 33960,
        "meta_element_set_no": 999,
        "meta_rev_at_epoch": 88949,
        "meta_bstar": 0.0027672748,
        "meta_mean_motion_dot": 0.00023957,
        "meta_mean_motion_ddot": 0,
        "tle_line1": "1 33960U 97051BV  25352.28972850  .00023957  00000+0  27673-2 0  9993",
        "tle_line2": "2 33960  86.2539 286.8965 0007450  53.0390 107.3954 14.85468400889493"
      },
      "geometry": {
        "type": "Point",
        "coordinates": [
          -75.69539281309555,
          -32.78206094031299
        ]
      }
    },
    {
      "type": "Feature",
      "properties": {
        "norad_id": 33966,
        "name": "IRIDIUM 33 DEB",
        "group": "iridium-33-debris",
        "lat": -68.52053823354508,
        "lon": -127.2849911282519,
        "alt_km": 733.2173768170442,
        "timestamp": "2025-12-18T15:47:11.609796+00:00",
        "meta_object_name": "IRIDIUM 33 DEB",
        "meta_object_id": "1997-051CB",
        "meta_epoch": "2025-12-18T05:02:06.942048",
        "meta_mean_motion": 14.49615454,
        "meta_eccentricity": 0.00080157,
        "meta_inclination": 86.3919,
        "meta_ra_of_asc_node": 43.6799,
        "meta_arg_of_pericenter": 170.7451,
        "meta_mean_anomaly": 261.6394,
        "meta_ephemeris_type": 0,
        "meta_classification_type": "U",
        "meta_norad_cat_id": 33966,
        "meta_element_set_no": 999,
        "meta_rev_at_epoch": 88521,
        "meta_bstar": 0.00042341797,
        "meta_mean_motion_dot": 1.646e-05,
        "meta_mean_motion_ddot": 0,
        "tle_line1": "1 33966U 97051CB  25352.20980257  .00001646  00000+0  42342-3 0  9993",
        "tle_line2": "2 33966  86.3919  43.6799 0008015 170.7451 261.6394 14.49615454885210"
      },
      "geometry": {
        "type": "Point",
        "coordinates": [
          -127.2849911282519,
          -68.52053823354508
        ]
      }
    },
    {
      "type": "Feature",
      "properties": {
        "norad_id": 34071,
        "name": "IRIDIUM 33 DEB",
        "group": "iridium-33-debris",
        "lat": -47.69218282711893,
        "lon": 11.22900062128042,
        "alt_km": 739.5705071543352,
        "timestamp": "2025-12-18T15:47:11.609806+00:00",
        "meta_object_name": "IRIDIUM 33 DEB",
        "meta_object_id": "1997-051CE",
        "meta_epoch": "2025-12-18T07:43:22.413216",
        "meta_mean_motion": 14.4948889,
        "meta_eccentricity": 0.00099568,
        "meta_inclination": 86.345,
        "meta_ra_of_asc_node": 15.4021,
        "meta_arg_of_pericenter": 92.446,
        "meta_mean_anomaly": 267.7884,
        "meta_ephemeris_type": 0,
        "meta_classification_type": "U",
        "meta_norad_cat_id": 34071,
        "meta_element_set_no": 999,
        "meta_rev_at_epoch": 88415,
        "meta_bstar": 0.00048215715,
        "meta_mean_motion_dot": 1.867e-05,
        "meta_mean_motion_ddot": 0,
        "tle_line1": "1 34071U 97051CE  25352.32178719  .00001867  00000+0  48216-3 0  9997",
        "tle_line2": "2 34071  86.3450  15.4021 0009956  92.4460 267.7884 14.49488890884153"
      },
      "geometry": {
        "type": "Point",
        "coordinates": [
          11.22900062128042,
          -47.69218282711893
        ]
      }
    },
    {
      "type": "Feature",
      "properties": {
        "norad_id": 34077,
        "name": "IRIDIUM 33 DEB",
        "group": "iridium-33-debris",
        "lat": 57.477363496398866,
        "lon": -136.78816417916423,
        "alt_km": 673.3311195946171,
        "timestamp": "2025-12-18T15:47:11.609818+00:00",
        "meta_object_name": "IRIDIUM 33 DEB",
        "meta_object_id": "1997-051CL",
        "meta_epoch": "2025-12-18T03:59:51.140832",
        "meta_mean_motion": 14.64893341,
        "meta_eccentricity": 0.00095976,
        "meta_inclination": 86.3857,
        "meta_ra_of_asc_node": 49.1172,
        "meta_arg_of_pericenter": 22.3717,
        "meta_mean_anomaly": 31.0362,
        "meta_ephemeris_type": 0,
        "meta_classification_type": "U",
        "meta_norad_cat_id": 34077,
        "meta_element_set_no": 999,
        "meta_rev_at_epoch": 88412,
        "meta_bstar": 0.00076822632,
        "meta_mean_motion_dot": 4.129e-05,
        "meta_mean_motion_ddot": 0,
        "tle_line1": "1 34077U 97051CL  25352.16656413  .00004129  00000+0  76823-3 0  9996",
        "tle_line2": "2 34077  86.3857  49.1172 0009597  22.3717  31.0362 14.64893341884127"
      },
      "geometry": {
        "type": "Point",
        "coordinates": [
          -136.78816417916423,
          57.477363496398866
        ]
      }
    }
  ]
}